{
  "type": "FeatureCollection",
  "features": [
    {
      "type": "Feature",
      "properties": {
        "norad_id": 44334,
        "name": "EUTELSAT 7C",
        "group": "eutelsat",
        "lat": -0.03638451227948832,
        "lon": 165.91737858542857,
        "alt_km": 35781.838135903876,
        "timestamp": "2025-12-04T05:42:43.049302+00:00",
        "meta_object_name": "EUTELSAT 7C",
        "meta_object_id": "2019-034B",
        "meta_epoch": "2025-12-03T18:20:38.512032",
        "meta_mean_motion": 1.00269357,
        "meta_eccentricity": 0.00034365,
        "meta_inclination": 0.076,
        "meta_ra_of_asc_node": 180.8017,
        "meta_arg_of_pericenter": 55.3226,
        "meta_mean_anomaly": 118.871,
        "meta_ephemeris_type": 0,
        "meta_classification_type": "U",
        "meta_norad_cat_id": 44334,
        "meta_element_set_no": 999,
        "meta_rev_at_epoch": 487,
        "meta_bstar": 0,
        "meta_mean_motion_dot": 6.5e-07,
        "meta_mean_motion_ddot": 0,
        "tle_line1": "1 44334U 19034B   25337.76433463  .00000065  00000+0  00000+0 0  9990",
        "tle_line2": "2 44334   0.0760 180.8017 0003436  55.3226 118.8710  1.00269357  4875"
      },
      "geometry": {
        "type": "Point",
        "coordinates": [
          165.91737858542857,
          -0.03638451227948832
        ]
      }
    },
    {
      "type": "Feature",
      "properties": {
        "norad_id": 44624,
        "name": "EUTELSAT 5 WEST B",
        "group": "eutelsat",
        "lat": -0.011454892201802331,
        "lon": 153.94930176015612,
        "alt_km": 35788.53706188039,
        "timestamp": "2025-12-04T05:42:43.049314+00:00",
        "meta_object_name": "EUTELSAT 5 WEST B",
        "meta_object_id": "2019-067A",
        "meta_epoch": "2025-12-03T17:09:26.694720",
        "meta_mean_motion": 1.00272793,
        "meta_eccentricity": 0.00037115,
        "meta_inclination": 0.0708,
        "meta_ra_of_asc_node": 328.8657,
        "meta_arg_of_pericenter": 285.1903,
        "meta_mean_anomaly": 71.1223,
        "meta_ephemeris_type": 0,
        "meta_classification_type": "U",
        "meta_norad_cat_id": 44624,
        "meta_element_set_no": 999,
        "meta_rev_at_epoch": 2247,
        "meta_bstar": 0,
        "meta_mean_motion_dot": -2.4e-07,
        "meta_mean_motion_ddot": 0,
        "tle_line1": "1 44624U 19067A   25337.71489230 -.00000024  00000+0  00000+0 0  9992",
        "tle_line2": "2 44624   0.0708 328.8657 0003711 285.1903  71.1223  1.00272793 22478"
      },
      "geometry": {
        "type": "Point",
        "coordinates": [
          153.94930176015612,
          -0.011454892201802331
        ]
      }
    },
    {
      "type": "Feature",
      "properties": {
        "norad_id": 45027,
        "name": "EUTELSAT KONNECT",
        "group": "eutelsat",
        "lat": 0.0501473457209287,
        "lon": 166.13552761049837,
        "alt_km": 35790.596623319594,
        "timestamp": "2025-12-04T05:42:43.049325+00:00",
        "meta_object_name": "EUTELSAT KONNECT",
        "meta_object_id": "2020-005B",
        "meta_epoch": "2025-12-03T18:20:38.512032",
        "meta_mean_motion": 1.00268582,
        "meta_eccentricity": 0.00017852,
        "meta_inclination": 0.0692,
        "meta_ra_of_asc_node": 99.0602,
        "meta_arg_of_pericenter": 186.374,
        "meta_mean_anomaly": 69.7611,
        "meta_ephemeris_type": 0,
        "meta_classification_type": "U",
        "meta_norad_cat_id": 45027,
        "meta_element_set_no": 999,
        "meta_rev_at_epoch": 2236,
        "meta_bstar": 0,
        "meta_mean_motion_dot": 6.6e-07,
        "meta_mean_motion_ddot": 0,
        "tle_line1": "1 45027U 20005B   25337.76433463  .00000066  00000+0  00000+0 0  9991",
        "tle_line2": "2 45027   0.0692  99.0602 0001785 186.3740  69.7611  1.00268582 22368"
      },
      "geometry": {
        "type": "Point",
        "coordinates": [
          166.13552761049837,
          0.0501473457209287
        ]
      }
    },
    {
      "type": "Feature",
      "properties": {
        "norad_id": 49056,
        "name": "EUTELSAT QUANTUM",
        "group": "eutelsat",
        "lat": -0.01800295619171058,
        "lon": -153.3545120015363,
        "alt_km": 35777.87420760027,
        "timestamp": "2025-12-04T05:42:43.049337+00:00",
        "meta_object_name": "EUTELSAT QUANTUM",
        "meta_object_id": "2021-069B",
        "meta_epoch": "2025-12-03T20:27:38.515104",
        "meta_mean_motion": 1.00271917,
        "meta_eccentricity": 0.00038004,
        "meta_inclination": 0.0193,
        "meta_ra_of_asc_node": 19.889,
        "meta_arg_of_pericenter": 246.5875,
        "meta_mean_anomaly": 161.08,
        "meta_ephemeris_type": 0,
        "meta_classification_type": "U",
        "meta_norad_cat_id": 49056,
        "meta_element_set_no": 999,
        "meta_rev_at_epoch": 1596,
        "meta_bstar": 0,
        "meta_mean_motion_dot": 1.43e-06,
        "meta_mean_motion_ddot": 0,
        "tle_line1": "1 49056U 21069B   25337.85252911  .00000143  00000+0  00000+0 0  9991",
        "tle_line2": "2 49056   0.0193  19.8890 0003800 246.5875 161.0800  1.00271917 15967"
      },
      "geometry": {
        "type": "Point",
        "coordinates": [
          -153.3545120015363,
          -0.01800295619171058
        ]
      }
    },
    {
      "type": "Feature",
      "properties": {
        "norad_id": 53765,
        "name": "EUTELSAT KONNECT VHTS",
        "group": "eutelsat",
        "lat": 0.0405229149596757,
        "lon": 161.6247614574013,
        "alt_km": 35782.57381837173,
        "timestamp": "2025-12-04T05:42:43.049348+00:00",
        "meta_object_name": "EUTELSAT KONNECT VHTS",
        "meta_object_id": "2022-110A",
        "meta_epoch": "2025-12-03T05:12:28.480320",
        "meta_mean_motion": 1.00269007,
        "meta_eccentricity": 0.0002764,
        "meta_inclination": 0.0603,
        "meta_ra_of_asc_node": 107.1016,
        "meta_arg_of_pericenter": 123.1613,
        "meta_mean_anomaly": 282.8564,
        "meta_ephemeris_type": 0,
        "meta_classification_type": "U",
        "meta_norad_cat_id": 53765,
        "meta_element_set_no": 999,
        "meta_rev_at_epoch": 486,
        "meta_bstar": 0,
        "meta_mean_motion_dot": 3.6e-07,
        "meta_mean_motion_ddot": 0,
        "tle_line1": "1 53765U 22110A   25337.21699630  .00000036  00000+0  00000+0 0  9995",
        "tle_line2": "2 53765   0.0603 107.1016 0002764 123.1613 282.8564  1.00269007  4867"
      },
      "geometry": {
        "type": "Point",
        "coordinates": [
          161.6247614574013,
          0.0405229149596757
        ]
      }
    },
    {
      "type": "Feature",
      "properties": {
        "norad_id": 54048,
        "name": "EUTELSAT HOTBIRD 13F",
        "group": "eutelsat",
        "lat": -0.059979512663328995,
        "lon": 171.97908325663226,
        "alt_km": 35794.10134950576,
        "timestamp": "2025-12-04T05:42:43.049360+00:00",
        "meta_object_name": "EUTELSAT HOTBIRD 13F",
        "meta_object_id": "2022-134A",
        "meta_epoch": "2025-12-02T19:57:38.448864",
        "meta_mean_motion": 1.00271371,
        "meta_eccentricity": 0.00019176,
        "meta_inclination": 0.0542,
        "meta_ra_of_asc_node": 289.0481,
        "meta_arg_of_pericenter": 66.1354,
        "meta_mean_anomaly": 29.1621,
        "meta_ephemeris_type": 0,
        "meta_classification_type": "U",
        "meta_norad_cat_id": 54048,
        "meta_element_set_no": 999,
        "meta_rev_at_epoch": 1140,
        "meta_bstar": 0,
        "meta_mean_motion_dot": 1.07e-06,
        "meta_mean_motion_ddot": 0,
        "tle_line1": "1 54048U 22134A   25336.83169501  .00000107  00000+0  00000+0 0  9991",
        "tle_line2": "2 54048   0.0542 289.0481 0001917  66.1354  29.1621  1.00271371 11408"
      },
      "geometry": {
        "type": "Point",
        "coordinates": [
          171.97908325663226,
          -0.059979512663328995
        ]
      }
    },
    {
      "type": "Feature",
      "properties": {
        "norad_id": 54225,
        "name": "EUTELSAT HOTBIRD 13G",
        "group": "eutelsat",
        "lat": -0.0481999645479311,
        "lon": 171.96559097820446,
        "alt_km": 35777.520799898804,
        "timestamp": "2025-12-04T05:42:43.049387+00:00",
        "meta_object_name": "EUTELSAT HOTBIRD 13G",
        "meta_object_id": "2022-146A",
        "meta_epoch": "2025-12-03T00:07:14.496096",
        "meta_mean_motion": 1.00271219,
        "meta_eccentricity": 0.00021047,
        "meta_inclination": 0.0475,
        "meta_ra_of_asc_node": 238.4149,
        "meta_arg_of_pericenter": 306.4933,
        "meta_mean_anomaly": 262.0024,
        "meta_ephemeris_type": 0,
        "meta_classification_type": "U",
        "meta_norad_cat_id": 54225,
        "meta_element_set_no": 999,
        "meta_rev_at_epoch": 549,
        "meta_bstar": 0,
        "meta_mean_motion_dot": 1.07e-06,
        "meta_mean_motion_ddot": 0,
        "tle_line1": "1 54225U 22146A   25337.00502889  .00000107  00000+0  00000+0 0  9991",
        "tle_line2": "2 54225   0.0475 238.4149 0002104 306.4933 262.0024  1.00271219  5499"
      },
      "geometry": {
        "type": "Point",
        "coordinates": [
          171.96559097820446,
          -0.0481999645479311
        ]
      }
    }
  ]
}